[{"OBJECT_NAME":"STARLINK-3372","OBJECT_ID":"2022-005K","EPOCH":"2026-03-09T19:41:30.469920","MEAN_MOTION":15.08825229,"ECCENTRICITY":0.00014832,"INCLINATION":53.218,"RA_OF_ASC_NODE":288.5375,"ARG_OF_PERICENTER":95.1079,"MEAN_ANOMALY":265.0082,"EPHEMERIS_TYPE":0,"CLASSIFICATION_TYPE":"U","NORAD_CAT_ID":51113,"ELEMENT_SET_NO":999,"REV_AT_EPOCH":22889,"BSTAR":0.00014903946,"MEAN_MOTION_DOT":2.084e-5,"MEAN_MOTION_DDOT":0},{"OBJECT_NAME":"CZ-6A R\/B","OBJECT_ID":"2024-126D","EPOCH":"2026-03-09T19:23:06.789408","MEAN_MOTION":15.13279149,"ECCENTRICITY":0.00704729,"INCLINATION":97.7886,"RA_OF_ASC_NODE":97.6113,"ARG_OF_PERICENTER":100.2752,"MEAN_ANOMALY":260.6434,"EPHEMERIS_TYPE":0,"CLASSIFICATION_TYPE":"U","NORAD_CAT_ID":60214,"ELEMENT_SET_NO":999,"REV_AT_EPOCH":9240,"BSTAR":0.00030839807,"MEAN_MOTION_DOT":5.76e-5,"MEAN_MOTION_DDOT":0}]
